Name,Url,Telephone,AddressLocality,Latitude,Longitude,attraction_type
The Belfast Titanic Tour -  Finn McCools Tours,http://www.finnmccoolstours.com/,+353(0)18684101,Dublin City,53.3465802160448,-6.259074208620629,tour
Cliffs of Moher - Finn McCools Tours,http://www.finnmccoolstours.com/,+353(0)18684101,Dublin City,53.35098330706679,-6.260265109423241,tour
Macau Casino Club,http://www.macausportingclub.com,+353(0)14755377,Dublin City,53.3411714,-6.2656956,club
Patrick Donald Photography Gallery,http://www.patrickdonald.com,+353(0)15389937,Dawson Street,53.3414059447069,-6.258344300236441,gallery
DoDublin Tours – Live German Tour,http://dodublin.ie/deutsche-busausflug-dublin,+353(0)17033215,Dublin City,53.35046455139871,-6.26102866999258,tour
Carr Golf Travel,http://www.carrgolf.com,+353(0)18226662,Clonsilla,53.387156999999995,-6.349643,other
Barnageara Beach,,+353(0)18400077,Skerries,53.58666584073111,-6.14835903591612,bar
Bull Island,http://www.dublin.ie,+353(0)18331859,Dublin City,53.374989,-6.137493,other
High Schools International,http://www.hsinet.org,+353(0)16784800,Dublin City,53.338496,-6.243811,school
Dalkey Castle & Heritage Centre,http://www.dalkeycastle.com,+353(0)12858366,Dalkey,53.278024,-6.105461,heritage
Dublin Castle,http://www.dublincastle.ie,+353(0)16458813,Dublin City,53.3428995946208,-6.26741864418033,castle
Dublin City Hall,http://www.dublincityhall.ie,+353(0)12222204,Dublin City,53.3439224313735,-6.2671491693115495,other
Budget Car Rental,http://www.budget.ie,+353(0)906627711,Dublin Airport,53.427170999999994,-6.244319,rent
Malahide Castle and Howth Tour - DoDublin,http://dodublin.ie,+353(0)17033028,Dublin City,53.350462,-6.261029,castle
Ireland's Blue Book,http://irelandsbluebook.com,+353(0)16769914,Dublin City,53.33586702892429,-6.251290507995571,other
Independent Holiday Hostels of Ireland,http://www.hostels-ireland.com,+353(0)18364700,Dublin City,53.363275,-6.235937,hostel
An Oige Irish Youth Hostel Association,http://www.anoige.ie,+353(0)18304555,Dublin City,53.355939,-6.2683480000000005,hostel
Aircoach,http://www.aircoach.ie,+353(0)18447118,Dublin Airport,53.428486,-6.243069,other
Ardgillan Demesne,http://www.ardgillancastle.ie/,+353(0)18492212,Balbriggan,53.587163138001095,-6.15902969162262,other
Kaplan International College Dublin,http://www.kaplaninternational.com,+44(0)2087273532,Dublin City,53.344933,-6.268863,other
Centre of English Studies,http://www.ces-schools.com,+353(0)16714233,Dublin City,53.34406800000001,-6.263502,english
Civic Theatre,http://www.civictheatre.ie,+353(0)14627477,Tallaght,53.288410999999996,-6.372209,theatre
Contemporary Music Centre,http://www.cmc.ie,+353(0)16731922,Dublin City,53.344173,-6.269532,music
Dublin Mini Coaches & Chauffeur Drive,http://www.dublinminicoaches.com/,+353(0)1861780049,Dublin City,53.330439,-6.348237999999999,other
Dualway Coaches,http://www.dualwaycoaches.com,+353(0)14580054,Rathcoole,53.277615000000004,-6.491218,other
Dublin Garden Group,http://www.dublingardens.com,+353(0)12832934,Blackrock,53.298931,-6.189413,garden
Dublin Literary Pub Crawl,http://www.dublinpubcrawl.com,+353(0)16705602,Dublin City,53.34383199999999,-6.260692,pub
Dublin Zoo,http://www.dublinzoo.ie,+353(0)14748900,Dublin City,53.355024,-6.304145,other
Dublinia,http://www.dublinia.ie,+353(0)16794611,Dublin City,53.34312274391829,-6.27200028587913,other
Eirebus Ltd,http://www.eirebus.ie,+353(0)18242626,Dublin City,53.414193999999995,-6.3597779999999995,other
Emerald Cultural Institute,http://www.eci.ie,+353(0)14973361,Dublin City,53.313638,-6.259107,other
Enterprise Rent-A-Car,http://www.enterprise.ie,+353(0)14290200,Dublin City,53.32465500000001,-6.347867,rent
Gate Theatre,http://www.gate-theatre.ie,+353(0)18744045,Dublin City,53.35304,-6.262278,theatre
Hidden Ireland,http://www.hiddenireland.com,+353(0)9866650,Dublin City,53.388836974758505,-6.30047646499663,other
International House Dublin,http://www.ihdublin.com,+353(0)16355850,Dublin City,53.334731999999995,-6.265528,house
The Horner School Of English,http://www.hornerschool.ie,+353(0)16622911,Dublin City,53.336484999999996,-6.249128,school
The Gaiety Theatre,http://www.gaietytheatre.ie,+353(0)16771717,Dublin City,53.340387,-6.26163,theatre
Irish Education Partners,http://www.iepartners.ie,+353(0)18550019,Dublin City,53.349897999999996,-6.253597,art
Irish Jewish Museum,http://www.jewishmuseum.ie/,+353(0)14531797,South Circular Road,53.330748,-6.269414,museum
Irish Welcome Tours,http://www.irishwelcometours.com,+353(0)12933000,Sandyford,53.275544999999994,-6.2159830000000005,tour
Irish College of English,http://www.iceireland.com,+353(0)18453744,Malahide,53.450155,-6.153319000000001,english
The James Joyce Centre,http://www.jamesjoyce.ie,+353(0)18788547,Dublin City,53.354156999999994,-6.259988,other
Croke Park Stadium,http://crokepark.ie/gaamuseum,+353(0)18192300,Dublin City,53.361245,-6.252428,park
Kilmainham Gaol,http://kilmainhamgaolmuseum.ie/,+353(0)14535984,Dublin City,53.3418898820564,-6.30978111045078,other
Language Learning International,http://www.lli.ie,+353(0)12143314,Blackrock,53.289680000000004,-6.1314839999999995,other
Leopardstown Racecourse,http://leopardstown.com,+353(0)12890500,Leopardstown,53.265657999999995,-6.1946129999999995,other
The Linguaviva Centre,http://www.linguaviva.com,+353(0)16789384,Dublin City,53.332969999999996,-6.254029,other
Malahide Marina Village Ltd,,+353(0)18454129,Malahide,53.4558,-6.1542699999999995,other
Dollar Thrifty Car Rental,http://www.thrifty.ie,+353(0)16687566,Dublin City,53.337422629764205,-6.23401799450687,rent
Marsh's Library,http://www.marshlibrary.ie,+353(0)14543511,Dublin City,53.339197,-6.270589,library
Abbey Theatre,http://www.abbeytheatre.ie,+353(0)18787222,Dublin City,53.34854,-6.2571069999999995,theatre
National Concert Hall,http://www.nch.ie,+353(0)14170000,Dublin City,53.334605,-6.259218,concert
National Gallery of Ireland,http://www.nationalgallery.ie,+353(0)16325133,Dublin City,53.340892000000004,-6.252491,gallery
National Photographic Archive,http://www.nli.ie,+353(0)16030200,Temple Bar,53.345183373571,-6.265378635582009,other
National Print Museum,http://www.nationalprintmuseum.ie,+353(0)16603770,Haddington Road,53.335167000000006,-6.235386,museum
Olympia Theatre,http://www.olympia.ie,+353(0)16793323,Dublin City,53.344313,-6.2660800000000005,theatre
Black Church Print Studio,http://www.print.ie,+353(0)16773629,Dublin City,53.345634999999994,-6.264056,church
Pavilion Theatre,http://www.paviliontheatre.ie,+353(0)12312929,Dún Laoghaire,53.293902,-6.133533,theatre
Royal Hibernian Academy,http://www.rhagallery.ie,+353(0)16612558,15 Ely Place,53.3370711953088,-6.25470687235258,academy
St Patrick's Cathedral,http://www.stpatrickscathedral.ie,+353(0)14539472,Dublin City,53.339543000000006,-6.27157,cathedral
Stena Line,http://www.stenaline.co.uk,+353(0)19075555,Dublin City,53.349617,-6.1974,other
The Sugar Club,http://www.thesugarclub.com,+353(0)16787188,Dublin City,53.335498,-6.256638,club
Temple Bar Cultural Trust and Temple Bar Cultural Information Centre,http://www.templebar.ie,+353(0)16772255,Dublin City,53.345328,-6.265743,bar
Temple Bar Gallery and Studios,http://www.templebargallery.com,+353(0)16710073,Dublin City,53.345631000000004,-6.263577,bar
Ambassador Theatre,,+353(0)0818333773,Dublin City,53.352709,-6.261968,theatre
Peacock Theatre,http://www.abbeytheatre.ie,+353(0)18787222,Dublin City,53.34854,-6.2571069999999995,theatre
The Spire,,,Dublin City,53.350921,-6.260294,other
Garden of Remembrance,http://www.heritageireland.ie/en/dublin/gardenofremembrance/,+353(0)18213021,Dublin City,53.35393596283111,-6.264127138900791,garden
General Post Office,http://www.anpost.ie/AnPost/History+and+Heritage/History/GPO+Dublin/,+353(0)17057000,Dublin City,53.349332999999994,-6.260654,other
Ha'penny Bridge,,,Dublin City Centre,53.346306999999996,-6.263081,other
Merrion Square,,+353(0)16612369,Dublin City,53.3388,-6.25002,other
Mansion House,http://www.lordmayordublin.ie,+353(0)12226200,Dublin City,53.340317000000006,-6.257726,house
Leinster House,http://www.oireachtas.ie/parliament/visitsevents/,+353(0)16183271,Dublin City,53.340121999999994,-6.254251999999999,house
Iveagh Gardens,http://www.heritageireland.ie/en/dublin/theiveaghgardens/,+353(0)14757816,Dublin City,53.335531607895604,-6.26077042291262,garden
St Ann's Church,http://www.stannschurch.ie,+353(0)16767727,Dublin City,53.341089000000004,-6.257889,church
St. Audoen's Church,http://www.heritageireland.ie/en/dublin/staudoenschurch/,+353(0)16770088,Dublin City,53.343796,-6.273575,church
War Memorial Gardens,http://www.heritageireland.ie/en/dublin/warmemorialgardens/,+353(0)14757816,Islandbridge,53.334912,-6.292519,memorial
St. Mary's Pro Cathedral,http://www.procathedral.ie,+353(0)18745441,Dublin City,53.351138,-6.258885,cathedral
Christ Church Cathedral,http://christchurchcathedral.ie/,+353(0)16778099,Dublin City,53.343458999999996,-6.271123,church
Dublin Writers Museum,http://www.writersmuseum.com,+353(0)18722077,Dublin City,53.354366000000006,-6.263985,museum
Croke Park Stadium Tour and GAA Museum,http://crokepark.ie/gaa-museum-tours/stadium-tours,+353(0)18192323,Dublin City,53.360566000000006,-6.2518519999999995,park
National Botanic Gardens,http://www.botanicgardens.ie/,+353(0)18040300,Dublin City,53.3726543450805,-6.271858190490769,garden
James Joyce Museum,,+353(0)12809265,Sandycove,53.288633999999995,-6.113658,museum
Pearse Museum and St. Enda's Park,http://www.heritageireland.ie/en/dublin/pearsemuseum-stendaspark/,+353(0)14934208,Rathfarnham,53.282937738280204,-6.28158782209015,park
Phoenix Park Visitor Centre and Ashtown Castle,http://www.phoenixpark.ie,+353(0)16770095,Dublin City,53.366091000000004,-6.331008,park
Rathfarnham Castle,http://www.rathfarnhamcastle.ie,+353(0)14939462,Rathfarnham,53.298067,-6.283678,castle
Skerries Mills,http://www.skerriesmills.ie,+353(0)18495208,Fingal,53.57433100000001,-6.110148000000001,other
St Anne's Park and Rose Gardens,http://www.dublincity.ie/main-menu-services-recreation-culture-dublin-city-parks-visit-park/st-annes-park,+353(0)18338898,Clontarf,53.3693,-6.17541,park
Blessington Street Basin (Dublin's Secret Garden),http://www.dublincity.ie/main-menu-services-recreation-culture-dublin-city-parks-visit-park/blessington-street-basin,+353(0)16612369,Dublin City,53.3572226151365,-6.26969159790041,garden
Phoenix Park,http://www.phoenixpark.ie,+353(0)18213021,Dublin City,53.3557378487288,-6.315418378433349,park
Marlay Park,http://www.dlrcoco.ie/parks/marlay_information.html,+353(0)14937372,Rathfarnham,53.2767650453436,-6.27623737578847,park
Abbey Ireland & UK,http://www.abbey.ie,+353(0)16486100,Dublin City,53.344609682430104,-6.27682906018833,other
Buff Day Spa,http://www.thebuffdayspa.com,+353(0)16774624,Dublin City,53.340222999999995,-6.2612879999999995,spa
The Helix,http://www.thehelix.ie,+353(0)17007138,Glasnevin,53.386497999999996,-6.259217,other
AquaZone at  the National Aquatic Centre,http://www.nac.ie,+353(0)16464300,Blanchardstown,53.397004,-6.370179,other
Áras an Uachtaráin,http://www.president.ie/en,+353(0)16770095,Dublin City,53.36161800000001,-6.311431,other
Alpha College of English,http://www.alphacollege.com,+353(0)18747024,Dublin City,53.355208317031405,-6.26182401719665,english
Farmleigh House,http://www.farmleigh.ie,+353(0)18155900,Castleknock,53.365152,-6.359980999999999,house
Government Buildings,http://www.taoiseach.gov.ie,+353(0)16194249,Dublin City,53.339374,-6.254129,other
St. Stephen's Green,http://www.heritageireland.ie/en/dublin/ststephensgreen/,+353(0)14757816,Dublin City Centre,53.3395626419277,-6.260346496047981,other
EF International Language Schools,http://www.ef-italia.it/pg/corsi-di-lingua/inglese/irlanda/,+353(0)16114220,Dublin City,53.334931999999995,-6.252871,school
Famine Memorial,,,Dublin City,53.347933,-6.2501940000000005,memorial
The Greenhouse,http://www.ecounesco.ie/,+353(0)16625491,Dublin City Centre,53.343615,-6.262036,house
Whelan's,http://www.whelanslive.com,+353(0)14780766,Dublin City,53.336617000000004,-6.265721,other
The Village,http://www.thevillagevenue.com,+353(0)14758555,Dublin City,53.336667776358794,-6.265787370749121,other
National Basketball Arena,http://www.arena.ie,+353(0)868388972,Tallaght,53.292364,-6.334469,other
National Library of Ireland,http://www.nli.ie,+353(0)16030259,Dublin City,53.34161999999999,-6.254541000000001,library
Leisureplex Stillorgan,http://www.leisureplex.ie,+353(0)12881656,Dublin City,53.289398999999996,-6.197433,other
Shackleton Outdoor Education Centre,http://www.colaistedhulaigh.ie,+353(0)18481400,Coolock,53.396804,-6.213115,other
Leisureplex Blanchardstown,http://www.leisureplex.ie,+353(0)18223030,Blanchardstown,53.391405000000006,-6.392785,other
Airfield Estate,http://www.airfield.ie,+353(0)19696666,Dundrum,53.2879548011902,-6.23517081747434,other
Blackrock Park,http://www.dlrcoco.ie/parks/blackrock.html,+353(0)12047275,Blackrock,53.3066,-6.19078,park
Brickfield Park,http://dublincity.ie/main-menu-services-culture-dublin-city-parks-visit-park/brickfield-park,+353(0)12222222,Drimnagh,53.3285,-6.305680000000001,park
Bushy Park,,+353(0)14900320,Terenure,53.301319522523094,-6.2927679692444,park
Eamonn Ceannt Park,http://www.sdcc.ie,+353(0)14540799,Crumlin,53.325658,-6.289724,park
Fairview Park,,+353(0)18336262,Clontarf,53.3629,-6.23555,park
Griffith Park,,+353(0)18373290,Drumcondra,53.370559946868,-6.261854712898849,park
Sean Walsh Memorial Park,http://www.sdublincoco.ie,+353(0)14149000,Tallaght,53.284433500581706,-6.369029612515759,memorial
Tolka Valley Park,,+353(0)18905629,Blanchardstown,53.394960519879106,-6.3841941158483495,park
Bernard Fagan Horse Drawn Carriages,http://www.horsedrawncarriagesdublin.com/,+353(0)868748691,Dublin City,53.349038201486394,-6.27732856041867,other
Clondalkin Sports And Leisure Centre,http://www.clondalkin.com,+353(0)14574858,Clondalkin,53.321899,-6.39904,sport
Leisureplex Coolock,http://www.leisureplex.ie,+353(0)18485722,Coolock,53.391653000000005,-6.192142,other
Howth Yacht Club Marina,,+353(0)18322141,Howth,53.388706000000006,-6.06771,club
Framework Gallery,http://www.theframeworkgallery.com,+353(0)12805756,Dun Laoghaire,53.289795,-6.130605,gallery
Green Gallery,http://www.greengallery.ie,+353(0)851988441,Dublin City Centre,53.339967,-6.262002,gallery
Green On Red Gallery,http://www.greenonredgallery.com,+353(0)872454282,Dublin City Centre,53.3501660435503,-6.2378709761047695,gallery
Guinness Gallery,http://www.guinnessgallery.com,+353(0)12897955,Foxrock,53.266725,-6.184356,gallery
Oriel Gallery,http://www.theoriel.com,+353(0)16763410,Dublin City Centre,53.341239,-6.251421,gallery
Origin Gallery,http://origingallery.wordpress.com/,+353(0)16629347,Dublin City,53.336472076452,-6.24941688591388,gallery
Original Print Gallery,http://www.originalprint.ie,+353(0)16773657,Dublin City Centre,53.345634999999994,-6.264056,gallery
Project Arts Centre,http://www.projectartscentre.ie,+353(0)8819613/14,Dublin City,53.34502,-6.266229,art
Portrane Beach,,+353(0)18400077,Portrane,53.496145118751,-6.11135202639758,beach
From Norsemen To Normans Historical Walking Tour,http://www.historicalinsights.ie,+353(0)876889412,Dublin City,53.3485699722169,-6.268577392716289,tour
James Joyce Walking Tour,http://www.jamesjoyce.ie,+353(0)18788547,Dublin City,53.354156999999994,-6.259988,tour
Coolock Swimming Pool,,+353(0)18477743,Coolock,53.395801,-6.213546,pool
Rathmines Swimming Pool,,+353(0)14961275,Dublin City,53.324812,-6.267618,pool
West Wood Clubs,,+353(0)18530353,Dublin City,53.363366000000006,-6.228802,club
Dun Laoghaire Rathdown Heritage Society,,+353(0)12806961ext238,Dún Laoghaire,53.292138,-6.13173,heritage
Berlitz Language Centre,http://berlitz-dublin.ie/foreign-language-courses/,+353(0)16449742,Dublin City,53.341729,-6.250585,other
DCU Language Services  -Dublin City University,http://www.english.dcu.ie,+353(0)17008443,Dublin City,53.385171,-6.258359,other
International Language Services,http://www.moyleparkelc.com/,+353(0)14675000,Clondalkin,53.320279000000006,-6.3973510000000005,other
Swan Training Institute,http://www.sti.ie,+353(0)16775252,Dublin City,53.342653000000006,-6.259398,other
ULearn English School Dublin,http://www.ulearnschool.com,+353(0)14751222,Dublin City,53.3365689864771,-6.26298466880803,school
Irish Language Courses,http://www.cnag.ie,+353(0)14757401,Dublin City,53.337138,-6.263192,other
Ireland The Living Heritage,http://www.ucd.ie/intsch,+353(0)14752004,Dublin City,53.336681000000006,-6.260125,heritage
Des Carty Traditional Music School,http://www.descartymusicschool.ie/,+353(0)14520611,Tallaght,53.27638733273871,-6.365483477169841,school
Bodhrán & Tin Whistle Tasters,http://www.newschool.ie,+353(0)14781884,Dublin City,53.3426655,-6.2646058999999905,other
Young European Strings School Of Music Faculty Of Teachers,http://www.youngeuropeanstrings.com,+353(0)14905263,Templeogue,53.300534,-6.313784,school
National College Of Art And Design,http://www.ncad.ie,+353(0)16364200,Dublin City,53.3409606029641,-6.25391656938314,art
Knockcree Gardens,http://www.dublingardens.com,+353(0)12955884,Carrickmines,53.2478,-6.18208,garden
Rathmichael Lodge,http://www.dublingardens.com/rathmichael_lodge.html,+353(0)12822203,Shankill,53.23178000000001,-6.135553,other
The Dillon Garden,http://www.dillongarden.com,+353(0)14971308,Ranelagh,53.3213057543533,-6.24706613491821,garden
Marlay Demesne,http://www.dlrcoco.ie/en/parks-outdoors/parks/marlay-park,+353(0)12054700,Rathfarnham,53.2796,-6.27569,other
Chester Beatty,http://www.chesterbeatty.ie,+353(0)14070750,Dublin City,53.342274463695496,-6.26747279877668,other
Pearse Street Library,http://www.dublincity.ie/main-menu-services-recreation-culture-dublin-city-public-libraries-and-archive-locations-hours-19,+353(0)16744888,Dublin City,53.343092000000006,-6.245275,library
Dublin City Archives,http://dublincity.ie/main-menu-services-recreation-culture-dublin-city-public-libraries-and-archive-heritage-and-histo-39,+353(0)16744999,Dublin City,53.34313385416229,-6.2452012969589505,other
Royal Irish Academy,http://www.ria.ie,+353(0)16762570,Dublin City Centre,53.340716,-6.2580849999999995,academy
The Irish Architectural Archive,http://www.iarc.ie,+353(0)16633040,Dublin City Centre,53.338673,-6.246843,other
James Joyce House of the Dead,http://www.jamesjoycehouse.ie,,Dublin City Centre,53.34629,-6.282819,house
Ardgillan Castle and Victorian Gardens,http://www.ardgillancastle.ie/,+353(0)18492212,Balbriggan,53.586000000000006,-6.16,castle
Bullock Castle,http://www.dlrtourism.com,+353(0)12845066,Dalkey,53.285016000000006,-6.1086290000000005,castle
Findlater Church,,+353(0)18378600,Dublin City,53.35462,-6.263976,church
Freemasons Hall,http://freemason.ie/,+353(0)16795465,Dublin City,53.341080000000005,-6.255966,other
Kings Inns,http://www.kingsinns.ie,+353(0)18744840,Dublin City,53.352871420634095,-6.27164607261045,other
Malahide Castle and Gardens,http://www.malahidecastleandgardens.ie/,+353(0)18169538,Malahide,53.444904,-6.164625,castle
Newbridge House & Farm,http://www.newbridgehouseandfarm.com,+353(0)18436534,Donabate,53.486394,-6.167976,house
Eighty Two Merrion Square,,+353(0)16761173,Dublin City Centre,53.339313,-6.251328,other
O'Connell Bridge,,,Dublin City,53.347291659237,-6.25910708052674,other
Jameson Distillery Bow St.,http://www.jamesonwhiskey.com,+353(0)18072355,Smithfield Village,53.34837717299279,-6.277353384384691,other
Adelaide Road Presbyterian Church,http://www.adelaideroadchurch.ie,+353(0)12694944,Dublin City,53.332501,-6.258781,church
Royal Hospital Kilmainham,http://www.rhk.ie,+353(0)16129900,Kilmainham,53.343309,-6.29972,other
Swords Castle,,+353(0)18905629,Swords,53.459928000000005,-6.220338,castle
The Four Courts,http://www.courts.ie/,+353(0)18886000,Dublin City,53.345909999999996,-6.273526,other
Tours Of The Government Buildings,http://www.taoiseach.gov.ie,+353(0)16194116,Dublin City,53.338393,-6.25366,tour
Geological Museum,http://www.tcd.ie/Geology/about/geologymuseum.php,+353(0)18961477,Dublin City Centre,53.34447900000001,-6.2612190000000005,museum
National Transport Museum of Ireland,http://www.nationaltransportmuseum.org,+353(0)18320427,Howth,53.38610500000001,-6.079401,sport
Arthur Griffith,http://www.visitdublin.com,+353(0)16057700,Merrion Street,53.340121999999994,-6.254251999999999,art
Arthur Wellesley Duke Of Wellington,http://www.visitdublin.com,+353(0)16057700,Dublin City,53.349086,-6.303230999999999,art
Charles Stewart Parnell,,,Dublin,53.353722999999995,-6.262251,art
Edmund Burke,http://www.visitdublin.com,+353(0)16057700,Dublin,53.34447900000001,-6.2612190000000005,other
Henry Grattan,http://www.visitdublin.com,+353(0)16057700,Dublin,53.34435,-6.260889,other
James Clarence Mangan,http://www.visitdublin.com,+353(0)16057700,Dublin,53.338457999999996,-6.259664,other
James Larkin,http://www.talkingstatuesdublin.ie/,,Dublin City,53.3490798104862,-6.25993770402146,other
Jeremiah O'Donovan Rossa,http://www.visitdublin.com,+353(0)16057700,Dublin,53.338446,-6.259703,other
Sphere With Sphere,,+353(0)16082320,Dublin City Centre,53.34447900000001,-6.2612190000000005,other
William Smith O'Brien Monument,http://www.visitdublin.com,+353(0)16057700,Dublin,53.348576,-6.259341,other
Swords Round Tower,http://www.fingaldublin.ie,+353(0)18400077,Swords,53.45813100000001,-6.219834,tower
Wood Quay,http://www.visitdublin.com/dublin-a-to-z/details/wood-quay/49834/,+353(0)14370969,Dublin City,53.343599,-6.26098,other
Arbour Hill Cemetery,http://www.heritageireland.ie/en/dublin/arbourhillcemetery/,+353(0)18213021,Stoneybatter,53.35108,-6.286436,other
Lusk Round Tower,http://www.heritageireland.ie,+353(0)18331618,Lusk,53.526025,-6.167107,tower
Angling Broad Meadow Water,,+,Swords,53.523529,-6.162203,other
Angling Tolka River,,,Mount Merrion,53.382791000000005,-6.312862,other
Fourknocks,http://www.knowth.com/fourknocks.htm,+353(0)18354722,Naul,53.5829197183035,-6.28453433525945,other
St. Catherine's Church,http://saintcatherines.ie/,+353(0)14735100,Dublin City,53.342907999999994,-6.281194,church
St Doulagh's Church,http://fingaldublin.ie/interior-pages/activities-attractions-amp-conference/castles-churches-and-towers/st-doulaghs-church/,+353(0)18400077,St Doolaghs,53.4154245464375,-6.17908588064574,church
The Black Church,http://www.visitdublin.com,+353(0)16057700,Dublin City,53.343599,-6.26098,church
St. Kevin's Oratory,,+353(0)18745441,Dublin 1,53.351092,-6.258805000000001,other
St. Werburgh's Church,,+353(0)14783710,Dublin City Centre,53.342932,-6.269412,church
The Mezz,http://www.facebook.com/mezzdublin/,+353(0)16707655,Dublin City,53.344689,-6.264697,other
Fibber Magee's,http://www.fibbermagees.ie,+353(0)18722575,Dublin City,53.352773,-6.260607,other
The Ha'Penny Laugh,,+353(0)16770616,Dublin City,53.345870999999995,-6.263344,other
Vicar Street,http://www.vicarstreet.com,+353(0)14546656,Dublin City,53.34265799999999,-6.2779419999999995,other
The Academy,http://www.theacademydublin.com,+353(0)18779999,Dublin City,53.347954,-6.261983,academy
Balbriggan Beach,,+353(0)18400077,Swords,53.6120165295749,-6.182411858744709,beach
Portmarnock - The Velvet Strand  Blue Flag Beach 2019,http://blueflagireland.org/velvet-strand-portmarnock-co-dublin/beach-description.654.html,,Portmarnock,53.4256058193956,-6.123452331952599,beach
Seapoint  Blue Flag Beach 2019,http://www.blueflagireland.org/,+353(0)12845066,Seapoint,53.297929,-6.163408,beach
Liffey Valley,,+353(0)18727777,Lucan,53.3541752280616,-6.39964680520295,other
Daniel O'Connell - Fidelity - O'Connell Monument,http://www.talkingstatuesdublin.ie/,,Dublin,53.3477032343793,-6.2593334343586,other
Isaac Butt,,,Dublin,53.34998,-6.253322,other
James Joyce,http://www.talkingstatuesdublin.ie/,+353(0)16057700,Dublin,53.3499183989187,-6.2597821981648805,other
Jonathan Swift,,+353(0)16057700,Dublin City Centre,53.344650080995905,-6.25918634320204,other
Molly Malone,,+353(0)16057700,Dublin 2,53.343739915711005,-6.260949959390009,other
Oscar Wilde,http://www.talkingstatuesdublin.ie/,,Dublin City,53.3408382372671,-6.25058375785829,other
Patrick Kavanagh,http://www.visitdublin.com,+353(0)16057700,Dublin City,53.343599,-6.26098,other
Gallery of Photography,http://www.galleryofphotography.ie,+353(0)16714654,Temple Bar,53.3448394225887,-6.26543333498762,gallery
Graphic Studio Gallery,http://www.graphicstudiodublin.com,+353(0)16798021,Temple Bar,53.34508100000001,-6.262355,gallery
Leisureplex Tallaght,http://www.leisureplex.ie,+353(0)14599411,Tallaght,53.286893000000006,-6.360474,other
Howth Castle,http://howthcastle.com/,+353(0)18396182,Howth,53.386538402362206,-6.07922528879146,castle
Irish Georgian Society,http://www.igs.ie,+353(0)16798675,Dublin 2,53.338964000000004,-6.250557,other
Irish Coaches 32CC,http://www.irishcoaches.ie,+353(0)18788898,Dublin City,53.347894,-6.2588989999999995,other
ISI - Ireland International Study Institute,http://www.studyinireland.ie,+353(0)18727888,Dublin City,53.347634,-6.269322,other
The Gorgeous Mask Historical Walking Tour Of Dublin,http://www.historicalinsights.ie,+353(0)18780227,Dublin City,53.348575,-6.268529,tour
Irish Film Institute,http://ifi.ie/archive,+353(0)16793477,Dublin City,53.344623999999996,-6.264943,other
Donabate Beach,http://www.blueflagireland.org/balcarrick-donabate/beach-description.627.html,+353(0)18400077,Donabate,53.4767443222642,-6.115920703755161,beach
Killiney Beach,http://www.blueflagireland.org/,+353(0)12845066,Killiney,53.2938491671484,-6.13491121089531,beach
CityJet,http://www.cityjet.com,+353(0)18700100,Dublin Airport,53.4273248526735,-6.24362337506715,other
Language and Leisure International,http://www.lal.ie,+353(0)12804586,Dún Laoghaire,53.28745,-6.13398,other
Atlas Language School,http://www.atlaslanguageschool.com,+353(0)14782845,Dublin City,53.3302742676101,-6.264600765945481,school
Dorset College,http://www.dorset-college.ie,+353(0)18306129,Dublin City,53.360877,-6.26061,other
Dublin Cultural Institute,http://www.dublinci.com,+353(0)18728470,Dublin City,53.347556999999995,-6.259839,other
Dublin International Foundation College,http://www.difc.ie,+353(0)14738120,Dublin City,53.331304,-6.278743,other
The English Academy,http://www.theenglishacademy.ie,+353(0)18726600,Dublin City,53.349959,-6.259932,academy
Artzone,http://www.artzone.ie,+353(0)14990614,Dublin City,53.31729300000001,-6.301149,art
Estonian Air,http://www.estonian-air.ee,+353(0)18444300,Dublin Airport,53.426983673863404,-6.2440839647683,other
Irish Ferries,http://www.irishferries.com,+353(0)1818300400,Dublin City,53.348895999999996,-6.20217,ferries
O'Reilly Theatre,http://www.oreillytheatre.com,+353(0)18586644,Dublin City,53.355509999999995,-6.262116000000001,theatre
Europcar,http://www.europcar.ie/dublinairport.html,+353(0)61206040,Dublin Airport,53.4271798651143,-6.243706858596849,other
CityJet Ltd,http://www.cityjet.com,+353(0)18700100,Swords,53.468536,-6.217287000000001,other
Premier Helicopters,http://www.premierhelicopters.ie,+353(0)18772630,Dublin City,53.355724,-6.219786,other
Star Air (Ireland) Ltd,,+353(0)18447973,Dublin Airport,53.4253,-6.22312,other
The Paul Kane Gallery,http://www.thepaulkanegallery.com,+353(0)876478423,Rathmines,53.322898561418505,-6.26751712182613,gallery
Ireland's Eye,,,Dublin,53.343599,-6.26098,other
The Chocolate Warehouse,http://www.chocolatewarehouse.ie/,+353(0)14500080,Walkinstown,53.314791712483206,-6.332108909919269,house
Railway Preservation Society Of Ireland,http://www.steamtrainsireland.com,+353(0)14800553,128-130 East Wall Road,53.282627000000005,-6.152749,other
Bleu Note Bar & Club,,+353(0)18783371,Dublin City,53.34975,-6.2690790000000005,bar
Dublin Airport,,,Dublin Airport,53.42528711599421,-6.236329078674309,other
Irelandhotels.com,http://www.irelandhotels.com,1890876769,Dublin City,53.328715,-6.2553019999999995,hotel
Authentic Ireland,http://www.authenticireland.com,+353(0)12933088,Sandyford,53.2755896475813,-6.215997059677759,other
Camping Ireland,http://www.camping-ireland.ie,,Dublin City,53.347874773010794,-6.2517264613334795,camping
Irish Cottage Holiday Homes,http://www.irishcottageholidays.com,+353(0)12052777,Sandyford,53.275571606119605,-6.215979089271509,other
Extreme Ireland Walking and Hiking Tours,http://www.extremeireland.ie,+353(0)14100700,Firhouse,53.341051,-6.284898,tour
Pure Magic Kitesurfing,http://www.puremagic.ie,+353(0)18054912,Clontarf,53.363089,-6.1783779999999995,other
Tivoli Theatre,http://www.tivoli.ie,+353(0)14544472,Dublin City,53.342307999999996,-6.275879,theatre
Mill Theatre,http://www.milltheatre.ie,+353(0)12969340,Sandyford,53.288351,-6.243288,theatre
Chaplins Comedy Club,http://www.chaplinscomedy.com,,Dublin City,53.3461656259146,-6.257180283683731,club
Dundrum Coach Hire,,+353(0)12981533,Ballinteer,53.27666,-6.247775,other
Malahide Coaches,http://www.malahidecoaches.com,+353(0)18453809,Malahide,53.44985500000001,-6.141845,other
Tour Dublin,http://www.tourdublin.ie,+353(0)863551449,Dublin City,53.3473830781906,-6.2592700592244395,tour
Clasac,http://www.clasac.ie,+353(0)18363060,Clontarf,53.360651000000004,-6.230766,other
"Applied Language Centre, University College Dublin",http://www.ucd.ie/alc,+353(0)17167900,Belfield,53.306327,-6.220299,other
"Imaginosity, Dublin Children’s Museum",http://www.imaginosity.ie,+353(0)12176130,Sandyford,53.277381999999996,-6.216709,museum
Live Jazz - Le Basement Jazz Club,,+353(0)0872878755,Dublin City,53.344069999999995,-6.263403,club
Delfin English School,http://www.delfinschool.com/en/dublin/,+353(0)18722037,Dublin City,53.3535065248439,-6.26189053038024,school
Lynda Booth’s Dublin Cookery School,http://www.dublincookeryschool.ie,+353(0)12100555,Blackrock,53.2971545041549,-6.17876734722131,school
Draiocht,http://www.draiocht.ie,+353(0)18852622,Blanchardstown,53.390980000000006,-6.391863,other
Hotels Ireland,http://www.hotelsireland.com,+353(0)12933040,Dublin City,53.344320139703996,-6.26367450395689,hotel
Arena School of English,http://www.arenaschool.com,+353(0)14789202,Dublin City,53.3400890221908,-6.26561832846871,school
Hidden Dublin Walks Ltd.,http://www.hiddendublinwalks.com/,+(0)861580949,Dublin City,53.3455,-6.27811,other
Sandemans New Dublin Free Walking Tour,http://www.newdublintours.com/,,Dublin City,53.344014069643706,-6.26688753282678,tour
Excursions Ireland,http://www.excursionsireland.com,+353(0)18107697,Baldoyle,53.39570500000001,-6.145817,other
The Wicklow Mountains Bus Tour - Gray Line Tours,http://www.loveireland.com,+353(0)18980700,Dublin City,53.343599,-6.26098,tour
Walkabout Wicklow - Guided Walks and Tours in Ireland,http://www.walkaboutwicklow.com,+353(0)867929579,Rathfarnham,53.27464499999999,-6.26154,tour
The Ireland Whiskey Trail,http://www.irelandwhiskeytrail.com,,Dublin City,53.34934832999479,-6.2600489281620595,other
Book of Kells & National Gallery Tour - Art Impressions,http://www.artimpressions.ie,+353(0)833756668,Dublin City,53.3473830781906,-6.2592700592244395,art
Yeats: The Life and Works of William Butler Yeats,http://www.nli.ie/yeats,+353(0)16030277,Dublin City,53.341081,-6.254641,other
GAA Museum - Croke Park,http://crokepark.ie/gaa-museum-tours/gaa-museum,+353(0)18192323,Dublin City,53.36046127534679,-6.24995408794404,park
The National Wax Museum Plus,http://www.waxmuseumplus.ie,+353(0)16718373,Dublin City,53.3466684,-6.258873699999981,museum
The New Theatre,http://www.thenewtheatre.com,+353(0)876703361,Dublin City,53.344976,-6.266514,theatre
Alix Gardners Cookery School,http://www.dublincookery.com,+353(0)16681553,Ballsbridge,53.329643999999995,-6.2453330000000005,school
Dublinbikes,http://www.dublinbikes.ie,1850777070,Dublin City,53.347874773010794,-6.2517264613334795,other
The Cookery School@Donnybrook Fair,http://www.donnybrookfair.ie/thecookeryschool.asp,+353(0)16689674,Donnybrook,53.324268999999994,-6.24028,school
The Kitchen in the Castle,http://www.thekitcheninthecastle.com,+353(0)18396182,Howth,53.38610500000001,-6.079401,castle
The National Leprechaun Museum,http://www.leprechaunmuseum.ie/,+353(0)18733899,Dublin City Centre,53.347646999999995,-6.266653,museum
Dublin City University Conference and Events,http://www.dcuconferencesandevents.ie/,+353(0)17008037,Glasnevin,53.3852,-6.25836,other
Trinity College Dublin,http://www.tcd.ie/conferences/ConferenceBrochure/,+353(0)18964477,Dublin City,53.3443,-6.2544699999999995,other
IMI Conference Centre & Residence,http://www.imi.ie/,+353(0)12078411,Dublin City,53.275966000000004,-6.231596,other
UCD,http://www.ucd.ie/conferences,+353(0)17162189,Dublin City,53.3059,-6.221830000000001,other
O'Connor Coaches,http://www.oconnorcoaches.com,+353(0)18321711,Howth,53.383633999999994,-6.068586,other
Howth Guided Tours,http://www.howthguidedtours.com,+353(0)868967035,Howth,53.3879,-6.06935,tour
"Newman University Church, Our Lady Seat of Wisdom",http://newman.nd.edu/,+353(0)14759674,Dublin City,53.336624,-6.260616000000001,church
Ecocabs,http://www.ecocabs.ie,,Dublin City,53.3473830781906,-6.2592700592244395,other
The Jeanie Johnston,http://www.jeaniejohnston.ie,+353(0)14730111,Dublin City,53.3477690297964,-6.24599514363387,other
Dublin City Bike Tours,http://www.dublincitybiketours.com,+353(0)871341866,Dublin City,53.34998,-6.253322,tour
The Howth Horse & Carriage Co,http://www.howthhorseandcarriage.com,+353(0)872906357,Howth,53.388006192827795,-6.06638090223151,other
The Dublin City Pub Crawl,http://www.thedublincitypubcrawl.com/,+353(0)864020040,Dublin City,53.3473830781906,-6.2592700592244395,pub
Baking Academy of Ireland,http://www.bakingacademyireland.ie,+00353(0)18451214,Palmerstown,53.35799599999999,-6.379362,academy
Panoramic Ireland Photo Tours,http://www.panoramicireland.com/dublin,+353(0)862461890,Dublin City,53.3473830781906,-6.2592700592244395,tour
Butlers Chocolate Experience,http://www.butlerschocolates.com/uk/chocolateexperience,+353(0)16710599,Clonshaugh,53.404051,-6.2194449999999994,other
Farmleigh House,http://www.farmleigh.ie,+353(0)18155900,Castleknock,53.365152,-6.359980999999999,house
Ardgillan Castle and Victorian Gardens,http://www.ardgillancastle.ie,+353(0)18492212,Balbriggan,53.586000000000006,-6.16,castle
Yellow Brick Road,http://www.yellowbrickroad.ie,+353(0)18730177,Dublin City,53.34696700000001,-6.262363,other
Skerries Seatours,http://www.skerriesseatours.ie,+353(0)863043847,Skerries,53.5838,-6.10462,tour
The Doorway Gallery,http://thedoorwaygallery.com,+353(0)17645895,Dublin City,53.342249,-6.2563,gallery
The Little Museum of Dublin,http://www.littlemuseum.ie,+353(0)16611000,Dublin City,53.339601097358205,-6.25832756501233,museum
Dublin by Taxi,http://www.dublinbytaxi.com,+353(0)877920338,Dublin City,53.3497402023534,-6.2603590240203095,other
Big Smoke Writing Factory,http://www.bigsmokewritingfactory.com/index.php,+353(0)879766253,Dublin City,53.3340897762717,-6.2561896571342,other
"The Grange Gifts, Gallery and Garden",http://www.thegrangedublin.ie,+353(0)18078888,Oldtown/Ballyboughal,53.517139611345904,-6.2760616680860695,gallery
The Sporting Emporium Casino,http://www.thesportingemporium.com/,+353(0)17030600,Dublin City,53.34069054773501,-6.2595645190490306,sport
Shelbourne Park Greyhound Stadium,http://www.Shelbourneparkgreyhoundstadium.ie,+353(0)61448080,Harolds Cross,53.3408032169786,-6.23109380713197,park
Trails and Tales,http://www.trailsandtales.ie,+353(0)871213360,Sandyford,53.2710603,-6.3392515,other
Royal College of Physicians of Ireland,http://www.numbersix.ie,+353(0)16698800,Dublin City,53.341422385999,-6.25477703372962,other
College of Anaesthetists of Ireland,http://www.anaesthesia.ie,+353(0)12650600,Dublin City,53.3401981,-6.2480448,other
Exchange Dublin,,+353(0)116779264,Dublin City,53.344547463374205,-6.2683222629516395,exchange
Chester Beatty,http://www.chesterbeatty.ie,+353(0)14070750,Dublin City,53.34226875004929,-6.26747371045985,other
National Folklore Collection,http://www.ucd.ie/irishfolklore,+353(0)17168216,Belfield,53.3068074108006,-6.21882000000005,other
Brewery Hops of Ireland,http://www.breweryhops.com,+353(0)868382996,Dublin City,53.3516266185254,-6.26091733404405,other
Dublin Falconry,http://www.dublinfalconry.com/,+353(0)876341574,Balbriggan,53.5754870854103,-6.19939986254883,other
"Victorian People's Flower Gardens, Phoenix Park",http://www.phoenixpark.ie/visitorinformation/peoplesflowergardens/,+353(0)18213021,Dublin,53.3503853149467,-6.299662900847571,park
Barry Doyle Design Jewellers,http://www.barrydoyledesign.com,+353(0)16172838,Dublin City,53.342466788936605,-6.26448783312685,bar
Djinn Jewellery,,+353(0)14759919,Dublin City,53.336011743872604,-6.26524479476847,other
Irish Design Shop,http://www.irishdesignshop.com,+353(0)16798871,Dublin City,53.3428188712715,-6.26293709357071,shop
The Design Tower - Breda Haugh Jeweller,http://www.bredahaugh.com/design-tower/,,Dublin City,53.3411011209964,-6.23910230000001,tower
Golden Ireland Directory Limited,http://www.goldenireland.ie,+353(0)14454783,Dublin City,53.3883712276468,-6.254655433577679,other
Bike on Board.ie,http://www.bike-on-board.ie,+353(0)18867700,Santry,53.394692000000006,-6.249486,other
Dublin Bay Cruises,http://www.dublinbaycruises.com,+353(0)19011757,Dún Laoghaire,53.295611716397495,-6.1337826419066905,cruise
Original Irish Hotels,http://www.originalirishhotels.com,+353(0)12958900,Foxrock,53.276672572714205,-6.204413320718911,hotel
Celtic Campervans,http://www.celticcampervans.com,+353(0)872794927,The Ward,53.431201,-6.3349400000000005,other
Island Ferries,http://www.IslandFerries.net,+353(0)868459154,Howth,53.3886892001671,-6.06393754536895,ferries
City Powerboat,http://www.adventuretrainingireland.com/ati/Home.html,+353(0)14428234,Dublin City,53.34760214933021,-6.24604034804076,other
Breda Haugh Jeweller Designer,http://www.bredahaugh.com,+353(0)16705738,Dublin City,53.3419308599333,-6.2400964030448405,other
The Gaiety School of Acting,http://www.gaietyschool.com,+353(0)16799277,Dublin City,53.3446759734314,-6.26859261642459,school
Doheny & Nesbitt,http://dohenyandnesbitts.ie,+353(0)16762945,Dublin City,53.338038,-6.252872,other
Primrose Hill,,+353(0)16280373,Lucan,53.353489,-6.450529,other
Sixt Rent A Car,http://ie.sixt.com/,+353(0)18445691,Dublin Airport,53.42716705310989,-6.24446569246208,rent
The Ark,http://www.ark.ie,+353(0)16707788,Dublin City,53.34485086933989,-6.265151252778651,other
F. W. Sweny & Co. Ltd.,http://sweny.ie/site/,+353(0)858146713,Dublin,53.3418860212333,-6.250578475875041,other
City Assembly House,http://www.igs.ie/conservation/project/city-assembly-house-a-history,+353(0)16798675,Dublin City,53.341992287246796,-6.26245320001737,house
Malahide Charter Boat,http://www.FishAndTrips.ie,+353(0)864674411,Malahide,53.45523579209189,-6.15445564907372,art
Denny's Dublin Tours,http://www.dennysdublintours.com,+353(0)831003427,Dublin City,53.3473752087648,-6.259086442870281,tour
Walking Tours Of Dublin Now And Then,,+353(0)864084040,Dublin City,53.3426674889696,-6.2680235633079,tour
Wonderful Ireland Walking Holidays,http://www.walkingholiday.ie,+353(0)877613344,Dublin City,53.288403,-6.245794,other
365 Chauffeur Drive,http://www.365chauffeurdrive.ie,+353(0)871342012,Dublin City,53.3493830372357,-6.2601700553123,other
The Westbury Club,http://www.westburyclub.com,+353(0)18453488,Malahide,53.4522610783964,-6.153194328836089,club
Dun Laoghaire Community Tourist Office,http://www.visitdublin.com,+353(0)12806964,Dún Laoghaire,53.2944340269574,-6.13486609458163,tour
Classic Hymer Hire Ltd,http://www.classichymerhire.com/,+353(0)872538003,Brittas,53.2279253999991,-6.44755122007791,other
Dun Laoghaire Marina,http://www.dlmarina.com,+353(0)12020040,Dún Laoghaire,53.295979200000005,-6.1370888,other
Senza Meta La Dublino dei Dublinesi  - Out and About,http://www.senzameta.org,+353(0)851565429,Dublin City,53.3496103930321,-6.2601700553123,other
Arbutus Garden Tours,http://www.arbutusgardentours.ie,+353(0)91882125,Ranelagh,53.3656392193716,-6.29209543788908,garden
Art tours incl. Book of Kells: Art Impressions,http://www.artimpressions.ie,+353(0)833756668,Dublin City,53.3473830781906,-6.2592700592244395,art
"Smock Alley Theatre, 1662",http://www.smockalley.com,+353(0)16770014,Dublin City,53.3449333,-6.2688625,theatre
Irish Whiskey Museum,http://www.irishwhiskeymuseum.ie,+353(0)15250970,Dublin City,53.34424924144629,-6.259589373016289,museum
Dublin Craic Tour - My Irish Guide,http://www.dublincraictour.ie,+353(0)872193151,Dublin City,53.339095900000004,-6.2576348,tour
Zoological Museum,http://www.tcd.ie/Zoology/museum/,+353(0)18961366,Trinity College,53.34318100000001,-6.251858,museum
Dublino Nascosta,http://www.dublinonascosta.it,+353(0)864427490,Dublin City,53.3453926,-6.2630214,other
The Workman's Club,http://theworkmansclub.com,+353(0)16706692,Dublin City,53.345416,-6.266483200000001,club
Kelly Hood Art Studio,http://www.kellyhood.com,+353(0)872249200,59 South William Street,53.3422940526995,-6.26222965763736,art
The Bernard Shaw,http://www.thebernardshaw.com,+353(0)14758664,Dublin City Area South,53.3317086929397,-6.26452950244674,other
Traditional Irish Experience,http://www.discoverdublin.ie,,Dublin City,53.346741957698896,-6.258477339286849,other
My Irish Landscape,http://www.myirishlandscape.ie,+353(0)872544443,Rathfarnham,53.275084561479794,-6.30269330200053,other
Irish Centre for Cycling,https://irishcentreforcycling.ie/,+353(0)18168345,Malahide,53.44484070218161,-6.16451444031986,other
The Dublin Cityscape Tour - Quicktours,http://www.cityscapetours.ie,+353(0)14659972,Dublin City,53.3475799,-6.3886862,tour
Trailwalkers Ireland Ltd.,http://www.trailwalkersireland.ie/,+353(0)872715656,Skerries,53.2790414,-6.3302004,other
Olivier Cornet Gallery,http://www.oliviercornetgallery.com,+353(0)872887261,Dublin City,53.3552861483208,-6.26248254701306,gallery
James Joyce Centre Footsteps of Leopold Bloom Tour,http://www.jamesjoyce.ie,+353(0)18788547,Dublin City,53.3540765,-6.2601571999999805,tour
James Joyce Centre Joyce Circular Tour,http://www.jamesjoyce.ie,+353(0)18788547,Dublin City,53.3540765,-6.2601571999999805,tour
James Joyce Centre Dubliners Tour,http://www.jamesjoyce.ie,+353(0)18788547,Dublin City,53.3540765,-6.2601571999999805,tour
BLOCK T,,+353(0)15351014,Dublin City,53.34753570000001,-6.2794985,other
Centre for Creative Practices,http://www.cfcp.ie,+353(0)17995416,Dublin City,53.336490000000005,-6.2524207,other
Camp and Curise Motor Homes,http://www.campandcruise.ie/,+353(0)18623860,Blanchardstown,53.411259614159995,-6.23937026472162,other
Taste of Dublin - See Dublin by Bike,http://www.seedublinbybike.ie,+353(0)876955976,Dublin City,53.3419644759931,-6.263863716602369,other
The History Tour - Photowalk Dublin,http://www.photowalkdublin.ie,+353(0)868505155,Dublin City,53.3466836,-6.291819,tour
The Georgian Tour - Photowalk Dublin,http://www.photowalkdublin.ie,+353(0)16585866,Dublin City,53.344476,-6.259396,tour
Dockland Tour - Photowalk Dublin,http://www.photowalkdublin.ie,+353(0)16585866,Dublin City,53.348656000000005,-6.2287550000000005,tour
Wild Wicklow Tours,http://www.wildwicklow.ie/,+353(0)12801899,Dublin City,53.343610999999996,-6.261018,tour
Abbey Theatre Tours,http://www.abbeytheatre.ie,+353(0)18787222,Dublin City,53.34854,-6.2571069999999995,theatre
Na Píobairí Uilleann,http://www.pipers.ie,+353(0)18730093,Dublin City,53.3493606218099,-6.2601807841483605,other
Sandemans New Dublin,http://www.newdublintours.com/,,Dublin City,53.345416788056895,-6.266485201474549,other
Cliffs Of Moher - Railtours Ireland First Class!,http://www.railtoursireland.com,+353(0)18560045,Dublin City,53.351003000000006,-6.250291000000001,tour
"Cork, Blarney Castle & Queenstown Tour -Railtours Ireland First Class!",http://www.railtoursireland.com,+353(0)18560045,Dublin City,53.351003000000006,-6.250291000000001,castle
The Ring of Kerry Tour - Railtours Ireland First Class!,http://www.railtoursireland.com,+353(0)18560045,Dublin City,53.351003000000006,-6.250291000000001,tour
Titanic and Belfast City Tour - Railtours Ireland First Class!,http://www.railtoursireland.com,+353(0)18560045,Dublin City,53.351003000000006,-6.250291000000001,tour
Wicklow Mountaineer Tour - Railtours Ireland First Class!,http://www.railtoursireland.com,+353(0)18560045,Dublin City,53.351003000000006,-6.250291000000001,tour
Cork and Blarney Castle Tour - Railtours Ireland First Class!,http://www.railtoursireland.com,+353(0)18560045,Dublin City,53.351003000000006,-6.250291000000001,castle
Connemara & The Wild Atlantic Way Tour - Railtours Ireland First Class!,http://www.railtoursireland.com,+353(0)18560045,Dublin City,53.351003000000006,-6.250291000000001,tour
Dublin Highlights & Hidden Corners Tour - Pat Liddys Walking Tours,http://www.walkingtours.ie,+353(0)18329406,Dublin City,53.350498869241505,-6.26074684357456,tour
Waterford Crystal & Kilkenny City Tour - Railtours Ireland First Class!,http://www.railtoursireland.com,+353(0)18560045,Dublin City,53.351003000000006,-6.250291000000001,tour
Best of Dublin Walking Tour - Pat Liddy Walking Tours,http://www.walkingtours.ie,+353(0)18329406,Dublin City,53.350498869241505,-6.26074684357456,tour
12 Henrietta Street,http://thedrawingroom.ie/,+353(0)862746153,Dublin City,53.3524569,-6.2705757,other
The Lansdowne Hotel,http://www.TheIRishHouseParty.com,+353(0)834569781,Dublin City,53.33224250000001,-6.241315,hotel
The Copper House Gallery,http://www.thecopperhousegallery.com,+353(0)15354332,Synge Street,53.3347332474765,-6.26777025165938,house
The Seamus Ennis Arts Centre,http://www.tseac.ie,+353(0)18020931,Naul,53.585801127722505,-6.28937168465574,art
Viking Theatre,http://www.vikingtheatredublin.com,+353(0)871129970,Clontarf,53.359109600000004,-6.1956987,theatre
MART Gallery,http://www.mart.ie,+353(0)15159692,Rathmines,53.324415032745,-6.26515248776627,art
The Library Project,http://library.photoireland.org/,+353(0)876856169,Dublin City,53.3456191875751,-6.2639193073403,library
Samuel Beckett Theatre,http://www.tcd.ie/Beckett-Theatre,+353(0)16961334,Dublin City,53.343793500000004,-6.254571599999999,theatre
The Chocolate Factory,http://www.chocolatefactory.ie/,+353(0)876842134,Dublin City,53.3514264631315,-6.2677033809855995,other
Newgrange & Hill of Tara Tour - Gray Line Tours,https://loveireland.com/,+353(0)18980700,Dublin City,53.3478518902364,-6.259606708984389,tour
RUA RED South Dublin Arts Centre,http://www.ruared.ie,+353(0)14515860,Tallaght,53.34980529999999,-6.2603097000000005,art
DC Music Club,http://www.musiclee.ie,+353(0)876825306,Dublin City,53.33636429999999,-6.2687425,club
Sol Art Gallery,http://www.solart.ie,+353(0)16750972,Dublin City,53.342076067992494,-6.25783793558196,art
Dublin a Pied,http://www.eirewalk.com,+353(0)877595378,Dublin City,53.3493606218099,-6.2601807841483605,other
Gleeson Hall,http://www.dit.ie/conservatory/,+353(0)14027857,Dublin City,53.33683739999999,-6.2679556,other
Celts & Castles Tours - Hilltop Treks,http://www.hilltoptreks.ie,+353(0)877849599,Dublin City,53.2774703,-6.3488718,castle
New Acropolis,http://www.acropolis.ie,+353(0)14968310,Rathmines,53.3282596,-6.2648038,other
Powerscourt Theatre,http://www.powerscourttheatre.com,+353(0)16111060,Dublin City,53.3422407,-6.261794,theatre
Aran Islands - 2 Day Tour Quicktours,http://www.quicktours.ie,+353(0)14659972,Dublin City,53.3455498280955,-6.25923664657511,tour
Day Tour to the Aran Islands & Wild Atlantic Way - Quicktours,http://www.quicktours.ie,+353(0)14659972,Dublin City,53.3455498280955,-6.25923664657511,tour
Kilkenny City & Wicklow Mountains - Wild Rover Tours,http://wildrovertours.com/,+353(0)12845560,Dublin City,53.34980529999999,-6.2603097000000005,tour
Kildare & Wicklow Heritage Tour - Quicktours,http://www.quicktours.ie,+353(0)14659972,Dublin City,53.3455498280955,-6.25923664657511,heritage
Wild Atlantic Way 1 Day Coach Tour - Quicktours,http://www.quicktours.ie,+353(0)14659972,Dublin City,53.3455498280955,-6.25923664657511,tour
Wild Atlantic Way featuring Loop Head Peninsula,http://www.quicktours.ie,+353(0)14659972,Dublin City,53.3455498280955,-6.25923664657511,other
"Bunratty Castle & Folk Park, The Burren & Cliffs of Moher",http://www.quicktours.ie,+353(0)14659972,Dublin City,53.3455498280955,-6.25923664657511,park
"Cliffs of Moher, Wild Atlantic Way & Galway City - Wild Rover Tours",http://wildrovertours.com,+353(0)12845560,Dublin City,53.3493606218099,-6.2601807841483605,tour
"Bunratty Castle, Burren & Cliffs of Moher - Quicktours",http://www.quicktours.ie,+353(0)14659972,Dublin City,53.3455498280955,-6.25923664657511,castle
Malahide Castle & Coastal Tour - City Sightseeing Dublin,https://loveireland.com/,+353(0)18980700,Dublin City,53.347941555042404,-6.25967108200075,castle
Eirewalk,http://www.eirewalk.com,+353(0)894337793,Dublin City,53.3493606218099,-6.2601807841483605,other
Theatre Upstairs,http://www.theatreupstairs.ie,+353(0)857727375,Dublin City,53.3478927,-6.2576408,theatre
Meeting House Square,http://www.meetinghousesquare.ie/,+353(0)16772255,Dublin City,53.3448414379854,-6.2653463195739505,house
U2's Dublin - See Dublin by Bike,http://www.seedublinbybike.ie,+353(0)876955976,Dublin City,53.3419644759931,-6.263863716602369,other
Cliffs of Moher - Paddywagon Tours,http://www.paddywagontours.com,+353(0)18230822,Dublin City,53.34970799999999,-6.253413,tour
Giant's Causeway Tour - Paddywagon Tours,http://www.paddywagontours.com,+353(0)18230822,Dublin City,53.34970799999999,-6.253413,tour
Blarney Cork and Cobh Tour - Paddywagon Tours,http://www.paddywagontours.com,+353(0)18230822,Dublin City,53.34970799999999,-6.253413,tour
The Belfast  Tour - Paddywagon Tours,http://www.paddywagontours.com,+353(0)18230822,Dublin City,53.34970799999999,-6.253413,tour
The Kilkenny Tour - Paddywagon Tours,http://www.paddywagontours.com,+353(0)18230822,Dublin City,53.34970799999999,-6.253413,tour
Galway and Connemara Tour - Paddywagon Tours,http://www.paddywagontours.com,+353(0)18230822,Dublin City,53.34970799999999,-6.253413,tour
The Kerry  Tour - Paddywagon Tours,http://www.paddywagontours.com,+353(0)18230822,Dublin City,53.34970799999999,-6.253413,tour
Pat Liddy's Walking Tours of Dublin Ltd,http://www.walkingtours.ie,+353(0)18329406,Dublin City,53.350498869241505,-6.26074684357456,tour
Giant's Causeway and G.O.T. locations tour - Extreme Ireland,http://www.irishdaytours.ie/tour/giants-causeway-tour,+353(0)863169788,Dublin City,53.3443425,-6.2596291,tour
Cork and Blarney Day Tour - Extreme Ireland,http://www.irishdaytours.ie/tour/cork-blarney-tour/,+353(0)863169788,Dublin City,53.3443425,-6.2596291,tour
Connemara Day Tour - Extreme Ireland,http://www.irishdaytours.ie/tour/connemara-tour/,+353(0)863169788,Dublin City,53.3443425,-6.2596291,tour
Cliffs of Moher Day Tour - Extreme Ireland,http://www.irishdaytours.ie/tour/cliffs-of-moher-tour/,+353(0)863169788,Dublin City,53.3443425,-6.2596291,tour
The Celtic Boyne Valley Day Tour - Extreme Ireland,http://www.irishdaytours.ie/tour/celtic-boyne-valley/,+353(0)863169788,Dublin City,53.3443425,-6.2596291,tour
Belfast city and Titanic tour - Extreme Ireland,http://www.irishdaytours.ie/tour/belfast-tour,+353(0)863169788,Dublin City,53.3443425,-6.2596291,tour
The Gravediggers Ghostbus - Extreme Ireland,http://www.extremeireland.ie/,+353(0)863169788,Dublin City,53.3443425,-6.2596291,other
Sandycove Beach,,,Dún Laoghaire,53.2876076291161,-6.11602999204762,beach
Killiney  Hill,http://www.dlrcoco.ie/parks/killiney.html,+353(0)12047275,Dalkey,53.2703464044806,-6.107273729205871,other
Customised Jogging Tour - Sight Jogging Dublin,http://www.sightjoggingdublin.com,+353(0)862002480,Dublin City,53.3398811,-6.2605801,tour
Literary Walking Tour Dublin,http://www.sightwalkingdublin.com,+353(0)862002480,Dublin City,53.3401439,-6.251688,tour
City Highlights Walking Tour- Dublin,http://sightwalkingdublin.com/,+353(0)862002480,Dublin City,53.34901800000001,-6.260023,tour
City Highlights Jogging Tour,http://www.sightjoggingdublin.com,+353(0)862002480,Dublin City,53.3398811,-6.2605801,tour
Racing Tours Ireland,http://www.racingtoursireland.com,+353(0)868591695,Killiney,53.343653213616705,-6.26048162118377,tour
Hilltop Treks Walking Tours,http://www.hilltoptreks.ie,+353(0)877849599,Firhouse,53.2774703,-6.3488718,tour
Musical Pub Crawl,https://www.musicalpubcrawl.com/,+353(0)14758345,Dublin City,53.345385678881996,-6.261713364418019,pub
Corporate Chauffeurs,http://corporatechauffeurs.ie/tours/,+353(0)872767660,Dublin City,53.3262954603074,-6.3223488766601506,other
Dublin Mini Coaches & Chauffeur Drive - Day Tours,,,Dublin City,53.33053,-6.348129,tour
The LAB Gallery,http://www.thelab.ie,+353(0)12225455,Dublin City,53.35152714736871,-6.25321559174881,gallery
Joyce and the Irish Literary Revival Tour,http://www.jamesjoyce.ie,+353(0)18788547,Dublin City,53.3540765,-6.2601571999999805,tour
Dublin Pedal Tours,http://www.dublinpedaltours.com/,+353(0)868577909,Dublin City,53.347069999999995,-6.25398,tour
Trace your Irish Ancestors and Heritage Tour - LetzGo City Tours,http://www.letzgocitytours.com/dublin/,+353(0)12548650,Dublin City,53.32443789999999,-6.328168199999929,heritage
HikingIreland.ie,http://www.hikingireland.ie,+353(0)866030482,Lusk,53.5224747,-6.1712382,other
"Guinness, Whiskey and Temple Bar Highlights Tour - LetzGo Tours",,+353(0)12548650,Dublin City,53.32443789999999,-6.328168199999929,bar
Early Access Book of Kells  & Dublin Castle Tour - LetzGo City Tours,http://www.letzgocitytours.com/dublin/,+353(0)12548650,Dublin City,53.32443789999999,-6.328168199999929,castle
Border Tours,http://www.bordertours.ie,+353(0)4780568,Dublin City,53.341696,-6.250049,tour
Butlers Chocolate Experience Tour,http://www.butlerschocolates.com/uk/chocolateexperience,+353(0)16710599,Clonshaugh,53.404051,-6.2194449999999994,tour
1916 Freedom Tour,http://www.1916tour.ie,+353(0)15311916,Dublin City,53.339138324502,-6.25036385533451,tour
Payless Car Rental Ireland,https://www.payless.ie,+353(0)15240803,Dublin Airport,53.4209848,-6.2241273,rent
The Story Bus,http://www.thestorybus.com,+353(0)851890191,Clondalkin,53.3184057798376,-6.37196779119869,other
Tour of Smock Alley Theatre,http://www.smockalley.com,+353(0)16770014,Dublin City,53.3449333,-6.2688625,theatre
Dublin Now  Walking Tour,http://www.sightwalkingdublin.com,+353(0)862002480,Dublin City,53.3401439,-6.2516888,tour
Burrow Beach Green Coast Award 2019,http://www.cleancoastsireland.org,,Sutton,53.3925262089564,-6.1056151866943,beach
Public Art Walking Tours,http://www.publicartwalkingtours.ie,+353(0)879803018,Dublin City,53.336898,-6.2597652,pub
DGallery,http://www.dgallery.ie,+353(0)851479802,Kilmainham,53.346235899525496,-6.308343440336549,gallery
Dun Laoghaire Walking Tours,http://www.walkdunlaoghaire.com,+353(0)860777848,Dún Laoghaire,53.294869999999996,-6.13428,tour
IBAT College Dublin English Language School,http://www.ibat.ie,+353(0)18075055,Dublin City,53.3454818293241,-6.2657240105644405,school
ATC Language & Travel,http://www.atclanguageschools.com,,Dublin City,53.341245787339105,-6.2633045650123895,other
The Lazy Bike Tour Company Limited,http://www.lazybiketours.com,+353(0)14433671,Dublin City,53.3446208,-6.2689166,tour
The Irish Rock 'N' Roll Museum Experience,http://www.irishrocknrollmuseum.com,+353(0)861303139,Temple Bar,53.344865000000006,-6.2645992999999995,museum
Jackpot Slot Club,http://www.jackpot.ie,+353(0)14785858,Dublin City,53.3493606218099,-6.2601807841483605,club
Colossus Casino Club,http://www.colossus.ie,+353(0)14785858,Dublin City,53.3493606218099,-6.2601807841483605,club
Cliffs of Moher Tour - Gray Line Tour,https://www.cliffsofmohershuttle.ie/,+353(0)18980700,Dublin City,53.34858829999999,-6.2595458,tour
Irish Road Tripper - The Wild Atlantic Way Tour,http://www.irishroadtripper.com,+353(0)879826871,Dublin City,53.342399758592904,-6.25519306375429,tour
Irish Road Tripper - The Giants Journey Tour,http://www.irishroadtripper.com,+353(0)879826871,Dublin City,53.34238054222429,-6.2551957459633,tour
Travelling Languages,http://www.travellinglanguages.com,+353(0)14434544,Dublin City,53.341495058097,-6.251891866270389,other
Newgrange & Boyne Valley Day Tour - Bus Éireann,http://www.buseireann.ie/inner.php?id=359##newgrange,1850836611,Dublin City,53.349717299999995,-6.2522180999999994,tour
Giants Causeway Tour - Finn McCools Tours,http://www.finnmccoolstours.com/,+353(0)18684101,Dublin City,53.3465802160448,-6.259074208620629,tour
Game of Thrones Tour - Finn McCools Tours,http://www.finnmccoolstours.com/,+353(0)18684101,Dublin City,53.3465802160448,-6.259074208620629,tour
Battles and Barracks,http://battlesandbarracks.wix.com/info,+353(0)862187443,Dublin City,53.3407957484722,-6.30307499101559,bar
Gormley's Fine Art,http://www.gormleys.ie,+353(0)16729031,Dublin City,53.3422410152631,-6.256393344145629,art
Dublin Whiskey Tours,http://www.dublinwhiskeytours.com,+353(0)863148977,Dublin City,53.3456614891671,-6.25742364309996,tour
DoDublin Tours,https://dodublin.ie,+353(0)18444265,Dublin City,53.3504633410894,-6.26102819673985,tour
'Star Wars' The Skellig Islands & Ring of Kerry - Railtours Ireland First Class,http://railtoursireland.com/train-tour/star-wars-skellig-michael/dh05stw,+353(0)18560045,Dublin City,53.351003000000006,-6.250291000000001,tour
Gays About Town,,+353(0)879616576,Dublin City,53.341171372437,-6.250632289874259,other
Glendalough Tour - Finn McCools Tours,http://www.finnmccoolstours.com/,+353(0)18684101,Dublin City,53.3465802160448,-6.259074208620629,tour
GPO Witness History,http://www.gpowitnesshistory.ie,+353(0)18721916,Dublin City,53.349425501013094,-6.26045223386836,other
Bus Éireann (Dublin City),http://www.buseireann.ie/inner.php?id=337,+353(0)18366111,Dublin City,53.3498729714571,-6.25258476821818,other
Mornington Garden,http://dalkeygardenschool.com,+353(0)872256365,Dalkey,53.271755299999995,-6.1132572,garden
The KEMP Gallery,http://thekempgallery.com,+353(0)877974716,Dublin City,53.3421907,-6.2563364,gallery
Waltons New School of Music,http://newschool.ie,+353(0)14781884,Dublin City,53.3426977385234,-6.26462878710253,school
Sixt Rent A Car - City Centre,http://www.sixt.ie,+353(0)12352030,Dublin City,53.3518630027171,-6.25868676465904,rent
Jonny Macs Famous Ireland Tours,http://jonnymacsfamousirelandtours.com/,+353(0)872628261,Dublin City,53.34855079999999,-6.2584408,tour
"The International School of English, ISE Ireland",http://iseireland.ie/,+353(0)16219039,Dublin City,53.335628,-6.263605,school
Howth Walking Tours,http://www.facebook.com/Howth-Historic-Walking-Tours-1203148753050552/,+353(0)852104600,Dublin City,53.3890206491815,-6.07309570747065,tour
Wild Atlantic Flights,http://wildatlanticflights.com,+353(0)16854150,Dublin City,53.352315133723096,-6.4883235625,other
The Michael Collins Walking Tour,http://www.michaelcollinstour.com,+353(0)868583847,Dublin City,53.3431227197205,-6.261819490195639,tour
The School of Jewellery Ireland,http://theschoolofjewellery.ie,+353(0)18380693,Dublin City,53.354886300000004,-6.2942715,school
7 Day World Tour of Ireland - Vagabond Tours of Ireland,http://vagabondtoursofireland.com/tour/7-days-in-ireland/,+353(0)14428559,Dublin City,53.3493056292934,-6.26020515750121,tour
1916 Ride the Revolution Rise of the Rebels Bus Tour - Hidden Dublin Walks,http://www.hiddendublinwalks.com/1916-bus-tour-dublin.php,+353(0)862088117,Dublin City,53.3454402,-6.2798109,tour
The Gravedigger Ghost Tour - Hidden Dublin Walks,http://hiddendublinwalks.com,+353(0)862088117,Dublin City,53.3454402,-6.2798109,tour
Hell Fire Club Bus Tour - Hidden Dublin Walks,http://www.hiddendublinwalks.com/ghost-tour-dublin.php,+353(0)862088117,Dublin City,53.3454402,-6.2798109,club
6 Day Northern Ireland Tour - Vagabond Tours of Ireland,http://vagabondtoursofireland.com/tour/6-day-northern-ireland-tour/,+353(0)14428559,Dublin City,53.3493056292934,-6.26020515750121,tour
Traditional Irish Storytelling Bus Tour - Hidden Dublin Walks,http://www.hiddendublinwalks.com/traditional-irish-storytelling-dublin.php,+353(0)862088117,Dublin City,53.3454402,-6.2798109,tour
7 Day Treasure Ireland Tour - Vagabond Tours of Ireland,http://vagabondtoursofireland.com/tour/7-day-treasure-ireland-tour/,+353(0)14428559,Dublin City,53.3493056292934,-6.26020515750121,tour
8 Day Wild Irish Rover - Vagabond Tours of Ireland,http://vagabondtoursofireland.com/tour/ireland-trips-award-winning-8-day/,+353(0)14428559,Dublin City,53.3493056292934,-6.26020515750121,tour
11 Day Discover Ireland Tour - Vagabond Tours of Ireland,http://vagabondtoursofireland.com/tour/vacations-to-ireland-11-day-driftwood/,+353(0)14428559,Dublin City,53.3493056292934,-6.26020515750121,tour
12 Day Giant Irish Adventure Tour - Vagabond Tours of Ireland,http://vagabondtoursofireland.com/tour/irish-tours-12-day-giant-irish-adventure/,+353(0)14428559,Dublin City,53.3493056292934,-6.26020515750121,tour
Ralph Smyth Tours,http://rsmythtours.wix.com/walkingtours,+353(0)894666812,Dublin City,53.342700343525706,-6.267449857672089,tour
Private Giants Causeway Day Tour with Kennedy & Carr,https://kennedycarr.com/private-tours/giants-causeway-tour-from-dublin/,+353(0)15510005,Dublin City,53.3497623,-6.259742,tour
The Complex,http://thecomplex.ie,+353(0)868109789,Dublin City,53.348299077788894,-6.26980723230281,other
Irish Secret Sights,http://irishsecretsights.org/,+353(0)863706806,Dublin City,53.3493606218099,-6.2601807841483605,other
Everest Language School,http://everestlanguageschool.com/,+353(0)15594919,Dublin City,53.34630173603029,-6.259458858335839,school
WILDIRISH Motorcycle Tours,http://wildirishmotorcycletours.com,+353(0)879889940,Dún Laoghaire,53.34975924600921,-6.20779326992192,tour
Dublin Smiles Tour with Wild Atlantic Flights,http://wildatlanticflights.com,+353(0)16854150,Dublin City,53.352315133723096,-6.4883235625,tour
Boyne Valley-Valley of the Kings Tour with Wild Atlantic Flights,http://wildatlanticflights.com,+353(0)16854150,Dublin City,53.352315133723096,-6.4883235625,tour
Wicklow Mountains and Glendalough Tour with Wild Atlantic Flights,http://wildatlanticflights.com,+353(0)16854150,Dublin City,53.352315133723096,-6.4883235625,tour
Jorgensen Gallery,http://www.jorgensenfineart.com/,+353(0)16619721,Dublin City,53.3409786,-6.256892400000001,gallery
Number Twenty Two,http://numbertwentytwo.ie,+353(0)17079899,Dublin City,53.3409665,-6.2590541,other
Richmond Barracks,http://richmondbarracks.ie,+353(0)12228400,Inchicore,53.338532593409994,-6.316201401633401,bar
Saint Patrick’s Day in Dublin,http://saintpatricksdayindublin.com,,Dublin City,53.3444316,-6.260879599999999,other
Sights Of Dublin Day Tours,http://sightsofdublin.com,+353(0)8667339268,Dublin City,53.3516845862516,-6.26091007301636,tour
John's Tours of Ireland,http://johnstoursofireland.ie,+353(0)872231355,Dublin City,53.3521841,-6.2608457,tour
Optimum Chauffer Drive,http://optimumcd.wpengine.com/services-optimum-chauffeur-drive/tour-services/,+353(0)18148873,Dublin City,53.3493606218099,-6.2601807841483605,other
Time Theme Tours,http://timethemetours.com,+353(0)862420962,Dublin City,53.34287355258039,-6.27676120432124,tour
Irish Rugby Institute,http://rugbyinstitute.com/,+353(0)872363482,Howth,53.387392299999995,-6.0681026,other
Personal Tours Ireland,http://personaltoursireland.com,+353(0)879360945,Dublin City,53.326018000000005,-6.427586799999999,tour
Dublin Boat Tour,http://dublinboattour.com,+353(0)8776935267,Dún Laoghaire,53.296183,-6.135103,tour
The Perseverance Fleeing The Famine Bus Tour-Hidden Dublin Walks,http://www.hiddendublinwalks.com/famine-tour-dublin.php,+353(0)862088117,Dublin City,53.3454402,-6.2798109,tour
Cliffs of Moher Day Tour-Hidden Dublin Walks and Tours,http://www.hiddendublinwalks.com/cliffs-of-moher-day-tour-dublin.php,+353(0)852088117,Dublin City,53.3455,-6.27811,tour
Cavan Burren Park Day Tour-Hidden Dublin Walks and Tours,http://www.hiddendublinwalks.com/cliffs-of-moher-day-tour-dublin.php,+353(0)852088117,Dublin City,53.3455,-6.27811,park
Slieve League Donegal Walking Day Tour-Hidden Dublin Walks and Tours,http://www.hiddendublinwalks.com/cliffs-of-moher-day-tour-dublin.php,+353(0)852088117,Dublin City,53.3455,-6.27811,tour
Stairway to Heaven-Hidden Dublin Walks and Tours,http://www.hiddendublinwalks.com/cliffs-of-moher-day-tour-dublin.php,+353(0)852088117,Dublin City,53.3455,-6.27811,tour
Excursiones Irlanda - Cliffs of Moher Day Tour,http://excursionesirlanda.com,,Dublin City,53.3497623,-6.259742,tour
The Haunted History Walking Tour - Hidden Dublin Walks,http://www.hiddendublinwalks.com/haunted-walking-tour-dublin.php,+353(0)851023646,Dublin City,53.3454402,-6.2798109,tour
Excursiones Irlanda - Blarney Day Tour,http://excursionesirlanda.com,,Dublin City,53.3497623,-6.259742,tour
Excursiones Irlanda - Giant’s Causeway Tour,http://excursionesirlanda.com,,Dublin City,53.3497623,-6.259742,tour
Silver Service,http://silverservice.ie,+353(0)871751375,Lucan,53.3572085,-6.4498488,other
My Gourmet Trail and Tour,http://mygourmettour.com,+353(0)872719423,Dublin City,53.343864,-6.267175,tour
The Úna Guy Studio,http://Unaguy.ie,+353(0)868109972,11 Eustace Street,53.345127097216604,-6.264839781207219,other
Rabbie’s Small Group Tours,https://www.rabbies.com/en/ireland-tours,,Dublin City,53.3424187243375,-6.25511775826646,tour
Pearse Lyons Distillery,https://www.pearselyonsdistillery.com/,+353(0)16916000,Dublin,53.3436846,-6.2896018,other
"Wanderlust Irland - Wicklow, Kilkenny & Glendalough Tour from Dublin",http://wanderlustirland.com,,Dublin City,53.3497623,-6.259742,tour
Wanderlust Irland - Cliffs of Moher Tour from Dublin,http://wanderlustirland.com,,Dublin City,53.3497623,-6.259742,tour
Wanderlust Irland - Belfast Tour from Dublin,http://wanderlustirland.com,,Dublin City,53.3497623,-6.259742,tour
George Bernard Shaw,http://talkingstatuesdublin.ie/,,Merrion Square West,53.3409246720839,-6.25248666017455,other
Meeting Place,http://www.talkingstatuesdublin.ie/,,Dublin City,53.346734399879395,-6.26328888034822,other
James Connolly,http://www.talkingstatuesdublin.ie/,,North Dock,53.34874521944611,-6.254645628450019,other
Wolfe Tone,http://talkingstatuesdublin.ie/,,Dublin City,53.3383946095185,-6.25594326452642,other
Cú Chulainn,http://talkingstatuesdublin.ie/,,O'Connell Street,53.349349,-6.260721,other
George Salmon,http://talkingstatuesdublin.ie/,,College Green,53.344554516428204,-6.25735238019615,other
Touristy Ireland,https://touristy.ie,,Dublin City,53.3598805,-6.2894873,tour
Architectural History Ireland,http://architecturalhistoryireland.ie,+353(0)872437117,Dublin City,53.342668447209796,-6.25578032728242,other
Wanderlust Irland - Galway & Connemara Tour from Dublin,http://wanderlustirland.com,,Dublin City,53.3497623,-6.259742,tour
Wanderlust Irland - Giant’s Causeway Tour From Dublin,http://wanderlustirland.com,,Dublin City,53.3497623,-6.259742,tour
Walkindublin.com,http://walkindublin.com,+353(0)18535833,Clontarf,53.344464620329106,-6.25941002594458,other
Vegan Dublin Food Tours by Vegan in Ireland,http://veganinireland.com,+353(0)831377834,Dublin City,53.352153,-6.2673239999999995,tour
A Spasso A Dublino - Italian Tour in Dublin,http://aspassoadublino.com,+353(0)899644861,Dublin City,53.3422400230571,-6.2516477259445,tour
Irlanda in Italiano,http://irlandainitaliano.com/,+353(0)874175767,Dublin City,53.340501100000004,-6.2334757000000005,other
The Round Tower Clondalkin,http://theroundtower.ie,+353(0)15554648,Clondalkin,53.3220841699287,-6.3953739104507505,tower
Urban Brewing,http://urbanbrewing.ie,+353(0)15685989,IFSC,53.3490868144682,-6.2482474490738,other
Vaults Live,http://vaults.live,+353(0)15411485,Dublin City,53.34357922105271,-6.277493199619349,other
Guinness Storehouse,http://www.guinness-storehouse.com,+353(0)14084800,Dublin City,53.343247999999996,-6.284198,house
14 Henrietta Street,http://facebook.com/14HenriettaStreetDublin,+353(0)15240383,Dublin,53.3525066716744,-6.2702109047595505,other
The Dublin Liberties Distillery,http://thedublinlibertiesdistillery.com,+353(0)14544815,The Liberties,53.3372851999089,-6.2763638922397105,other
Barnageara Beach,,+353(0)18400077,Skerries,53.58666584073111,-6.14835903591612,bar
Roe & Co Whiskey Distillery,http://roeandcowhiskey.com,+353(0)16435999,Dublin City,53.34363769806729,-6.28566076396145,other
